OBJECT_NAME,OBJECT_ID,EPOCH,MEAN_MOTION,ECCENTRICITY,INCLINATION,RA_OF_ASC_NODE,ARG_OF_PERICENTER,MEAN_ANOMALY,EPHEMERIS_TYPE,CLASSIFICATION_TYPE,NORAD_CAT_ID,ELEMENT_SET_NO,REV_AT_EPOCH,BSTAR,MEAN_MOTION_DOT,MEAN_MOTION_DDOT
COSMOS 2507 (RODNIK-S 13),2015-050A,2026-06-09T14:02:46.311072,12.42926975,.00105362,82.4919,84.4024,12.7520,347.3824,0,U,40920,999,48591,.70431173E-3,.107E-5,0
COSMOS 2508 (RODNIK-S 14),2015-050B,2026-06-09T14:53:48.539616,12.42914184,.0015363,82.4871,82.8884,42.3669,317.8594,0,U,40921,999,48590,.3819156E-3,.63E-6,0
COSMOS 2509 (RODNIK-S 15),2015-050C,2026-06-09T13:26:54.628800,12.42883572,.00158374,82.4880,83.0276,58.4505,301.8119,0,U,40922,999,48593,.21282063E-3,.39E-6,0
LINGQIAO VIDEO A,2015-057B,2026-06-09T15:22:22.521216,14.77383541,.00154546,97.6623,155.8150,297.5703,62.3938,0,U,40959,999,57429,.12130362E-3,.815E-5,0
LINGQIAO VIDEO B,2015-057C,2026-06-09T14:49:34.072608,14.77489464,.0015583,97.6589,156.9588,297.6670,62.2959,0,U,40960,999,57433,.11747389E-3,.79E-5,0
JILIN-1,2015-057D,2026-06-09T11:58:58.247328,14.78147877,.00154204,97.6506,160.2478,290.6817,69.2741,0,U,40961,999,57447,.11772843E-3,.805E-5,0
FOX-1A (AO-85),2015-058D,2026-06-09T12:06:49.256928,14.90932457,.0130003,64.7758,302.8578,59.6042,301.7845,0,U,40967,999,11242,.22900237E-3,.2485E-4,0
SINOD-D 1,2015-058E,2026-06-09T12:34:12.824256,14.95856209,.01186055,64.7759,282.9106,56.1390,305.0942,0,U,40968,999,11551,.2598815E-3,.3174E-4,0
ELEKTRO-L 2,2015-074A,2026-06-09T06:22:25.775904,1.00271831,.0001007,6.6730,70.6207,284.5070,343.6389,0,U,41105,999,3842,0,-.102E-5,0
DAMPE,2015-078A,2026-06-09T14:03:21.824064,15.30767038,.00137277,97.4562,166.0156,100.5032,259.7756,0,U,41173,999,58338,.53371566E-4,.1513E-4,0
ORBCOMM FM114,2015-081A,2026-06-09T09:02:07.776960,14.58849522,.00019864,47.0059,38.9321,175.0900,185.0006,0,U,41179,999,55661,.12488098E-3,.419E-5,0
ORBCOMM FM110,2015-081D,2026-06-09T08:45:34.430976,14.58868027,.0002811,47.0029,38.4278,30.7544,329.3506,0,U,41182,999,55648,.17357098E-3,.649E-5,0
ORBCOMM FM112,2015-081F,2026-06-09T03:07:11.350272,14.58892085,.00032395,47.0001,308.3470,182.2677,177.8194,0,U,41184,999,55777,.15653369E-3,.569E-5,0
ORBCOMM FM113,2015-081G,2026-06-09T02:33:10.374048,14.58849888,.000181,47.0018,308.8310,192.4742,167.6099,0,U,41185,999,55775,.11906497E-3,.392E-5,0
ORBCOMM FM108,2015-081J,2026-06-08T22:21:52.417152,14.58862719,.00025317,47.0040,221.2288,186.7177,173.3675,0,U,41187,999,55887,.14432977E-3,.511E-5,0
ORBCOMM FM117,2015-081K,2026-06-09T10:41:09.027168,14.58859030,.00030735,47.0001,217.4377,191.7744,168.3070,0,U,41188,999,55899,.12031331E-3,.397E-5,0
ORBCOMM FM116,2015-081L,2026-06-07T17:07:36.101856,14.58869594,.00011218,47.0035,315.4145,3.5235,356.5659,0,U,41189,999,55755,.21737163E-3,.857E-5,0
HORYU-4,2016-012D,2026-06-09T07:01:20.100000,15.90004490,.00032551,30.9844,136.7554,219.0732,140.9694,0,U,41340,999,56955,.10049043E-2,.328479E-2,0
ZIYUAN 3-02 (ZY 3-02),2016-033A,2026-06-09T15:01:49.073088,15.21408117,.00115343,97.3835,236.5451,319.9454,40.0931,0,U,41556,999,55683,.21859077E-3,.4844E-4,0
CARTOSAT-2C,2016-040A,2026-06-09T14:49:49.684224,15.19259008,.00099693,97.4490,220.6998,154.7197,205.4527,0,U,41599,999,55256,.17734709E-3,.3674E-4,0
LAPAN-A3,2016-040E,2026-06-09T14:52:29.162208,15.33056388,.00116846,97.1486,157.0144,50.3382,309.8890,0,U,41603,999,55365,.97553638E-4,.3046E-4,0
GAOFEN-3,2016-049A,2026-06-09T14:11:15.136224,14.42214633,.0001234,98.4016,168.4920,99.2655,260.8674,0,U,41727,999,51755,.41341211E-4,.93E-6,0
CAS-2T & KS-1Q,2016-066G,2026-06-09T11:35:56.232672,14.44668740,.03425109,98.3822,236.3075,152.7905,209.1703,0,U,41847,999,50368,.23477719E-3,.1622E-4,0
YUNHAI-1 01,2016-068A,2026-06-09T14:58:21.897984,14.32701124,.00064431,98.5835,171.7015,61.2817,298.9014,0,U,41857,999,50074,.21418237E-3,.539E-5,0
RESOURCESAT-2A,2016-074A,2026-06-09T14:38:48.724224,14.21615604,.00033515,98.7522,234.1765,97.3639,262.7919,0,U,41877,999,49322,.2630151E-3,.533E-5,0
